line1,line2,classification,launch_year,launch_number,launch_piece,epoch_year,epoch_day,mean_motion_dot,mean_motion_ddot,bstar,ephemeris_type,element_number,satellite_number,inclination,ra_of_asc_node,eccentricity,arg_of_perigee,mean_anomaly,mean_motion,rev_at_epoch,datetime,x,y,z,cartesian_cords,NORAD_CAT_ID,OBJECT_TYPE,SATNAME,SITE,Operator/Owner,Users,Purpose,anom_inclination,anom_ra_of_asc_node,anom_eccentricity,anom_arg_of_perigee,anom_mean_anomaly,anom_mean_motion,anom_count
1 00829U 64038A   21358.52685118  .00000801  00000-0  22504-3 0  9990,2 00829  60.8264 292.7247 2977437 273.5106  53.4713  9.14387257865326,U,64,038,A,21,358.52685118,8.01e-06,0.0,0.0,0,999,829,60.8264,292.7247,0.2977437,273.5106,53.4713,9.14387257,86532,2021-12-24 12:38:39.941952,3302.863788347769,-7996.283327051736,-6.8328476480728435,[ 3.30286379e+03 -7.99628333e+03 -6.83284765e+00],829,PAYLOAD,ELEKTRON 3,TTMTR,0,0,0,0.0,0.0,0.0,0.0,0.0,0.0,0.0
1 00829U 64038A   21357.87071753  .00000732  00000-0  20696-3 0  9994,2 00829  60.8264 293.6225 2977510 273.3363  53.6170  9.14385795865264,U,64,038,A,21,357.87071753,7.32e-06,0.0,0.0,0,999,829,60.8264,293.6225,0.297751,273.3363,53.617,9.14385795,86526,2021-12-23 20:53:49.994592,3430.783009678857,-7950.57450043782,-7.109491013682497,[ 3.43078301e+03 -7.95057450e+03 -7.10949101e+00],829,PAYLOAD,ELEKTRON 3,TTMTR,0,0,0,0.0,0.0,0.0,0.0,0.0,0.0,0.0
1 00829U 64038A   21357.21458302  .00000793  00000-0  22276-3 0  9994,2 00829  60.8264 294.5201 2977565 273.1623  53.7629  9.14385057865200,U,64,038,A,21,357.21458302,7.93e-06,0.0,0.0,0,999,829,60.8264,294.5201,0.2977565,273.1623,53.7629,9.14385057,86520,2021-12-23 05:08:59.972928,3558.056177670558,-7902.83872534817,-7.384229679343455,[ 3.55805618e+03 -7.90283873e+03 -7.38422968e+00],829,PAYLOAD,ELEKTRON 3,TTMTR,0,0,0,0.0,0.0,0.0,0.0,0.0,0.0,0.0
1 00829U 64038A   21356.12102370  .00000676  00000-0  19180-3 0  9994,2 00829  60.8261 296.0158 2977687 272.8724  54.0063  9.14382810865107,U,64,038,A,21,356.1210237,6.76e-06,0.0,0.0,0,999,829,60.8261,296.0158,0.2977687,272.8724,54.0063,9.1438281,86510,2021-12-22 02:54:16.447680,3768.681231769818,-7818.790217616584,-7.827791381842683,[ 3768.68123177 -7818.79021762    -7.82779138],829,PAYLOAD,ELEKTRON 3,TTMTR,0,0,0,0.0,0.0,0.0,0.0,0.0,0.0,0.0
1   829U 64038A   21355.90231187  .00000661  00000-0  18792-3 0  9990,2   829  60.8260 296.3150 2977712 272.8141  54.0553  9.14382383865067,U,64,038,A,21,355.90231187,6.61e-06,0.0,0.0,0,999,829,60.826,296.315,0.2977712,272.8141,54.0553,9.14382383,86506,2021-12-21 21:39:19.745568,3810.5881829822233,-7801.317538640253,-7.920933689427613,[ 3810.58818298 -7801.31753864    -7.92093369],829,PAYLOAD,ELEKTRON 3,TTMTR,0,0,0,0.0,0.0,0.0,0.0,0.0,0.0,0.0
1 00829U 64038A   21355.24617495  .00000695  00000-0  19686-3 0  9997,2 00829  60.8261 297.2126 2977762 272.6401  54.2021  9.14381682865022,U,64,038,A,21,355.24617495,6.95e-06,0.0,0.0,0,999,829,60.8261,297.2126,0.2977762,272.6401,54.2021,9.14381682,86502,2021-12-21 05:54:29.515680,3935.8302007043912,-7747.538331174643,-8.179552119500455,[ 3935.8302007  -7747.53833117    -8.17955212],829,PAYLOAD,ELEKTRON 3,TTMTR,0,0,0,0.0,0.0,0.0,0.0,0.0,0.0,0.0
1 00829U 64038A   21354.80875025  .00000640  00000-0  18233-3 0  9990,2 00829  60.8259 297.8111 2977806 272.5239  54.3002  9.14380788864986,U,64,038,A,21,354.80875025,6.4e-06,0.0,0.0,0,999,829,60.8259,297.8111,0.2977806,272.5239,54.3002,9.14380788,86498,2021-12-20 19:24:36.021600,4018.9328819356015,-7710.572825175214,-8.345854683538379,[ 4018.93288194 -7710.57282518    -8.34585468],829,PAYLOAD,ELEKTRON 3,TTMTR,0,0,0,0.0,0.0,0.0,0.0,0.0,0.0,0.0
1 00829U 64038A   21354.48068147  .00000632  00000-0  18026-3 0  9994,2 00829  60.8259 298.2599 2977831 272.4370  54.3736  9.14380299864952,U,64,038,A,21,354.48068147,6.32e-06,0.0,0.0,0,999,829,60.8259,298.2599,0.2977831,272.437,54.3736,9.14380299,86495,2021-12-20 11:32:10.879008,4081.0111049023717,-7682.26563162336,-8.489394668989483,[ 4081.0111049  -7682.26563162    -8.48939467],829,PAYLOAD,ELEKTRON 3,TTMTR,0,0,0,0.0,0.0,0.0,0.0,0.0,0.0,0.0
1 00829U 64038A   21353.82454348  .00000543  00000-0  15695-3 0  9993,2 00829  60.8258 299.1577 2977896 272.2626  54.5212  9.14378998864897,U,64,038,A,21,353.82454348,5.43e-06,0.0,0.0,0,999,829,60.8258,299.1577,0.2977896,272.2626,54.5212,9.14378998,86489,2021-12-19 19:47:20.556672,4204.64000356872,-7624.167185566827,-8.735594233009513,[ 4204.64000357 -7624.16718557    -8.73559423],829,PAYLOAD,ELEKTRON 3,TTMTR,0,0,0,0.0,0.0,0.0,0.0,0.0,0.0,0.0
1 00829U 64038A   21353.49647406  .00000541  00000-0  15633-3 0  9995,2 00829  60.8258 299.6065 2977920 272.1757  54.5948  9.14378607864866,U,64,038,A,21,353.49647406,5.41e-06,0.0,0.0,0,999,829,60.8258,299.6065,0.297792,272.1757,54.5948,9.14378607,86486,2021-12-19 11:54:55.358784,4266.120108509241,-7594.374422996732,-8.878743131562057,[ 4266.12010851 -7594.374423      -8.87874313],829,PAYLOAD,ELEKTRON 3,TTMTR,0,0,0,0.0,0.0,0.0,0.0,0.0,0.0,0.0
1 00829U 64038A   21352.84033487  .00000480  00000-0  14017-3 0  9998,2 00829  60.8257 300.5043 2977979 272.0012  54.7429  9.14377590864800,U,64,038,A,21,352.84033487,4.8e-06,0.0,0.0,0,999,829,60.8257,300.5043,0.2977979,272.0012,54.7429,9.1437759,86480,2021-12-18 20:10:04.932768,4388.5176579152685,-7533.32104160538,-9.128807499391295,[ 4388.51765792 -7533.32104161    -9.1288075 ],829,PAYLOAD,ELEKTRON 3,TTMTR,0,0,0,0.0,0.0,0.0,0.0,0.0,0.0,0.0
1 00829U 64038A   21352.51226494  .00000491  00000-0  14302-3 0  9993,2 00829  60.8257 300.9531 2978008 271.9143  54.8167  9.14377320864770,U,64,038,A,21,352.51226494,4.91e-06,0.0,0.0,0,999,829,60.8257,300.9531,0.2978008,271.9143,54.8167,9.1437732,86477,2021-12-18 12:17:39.690816,4449.368888152905,-7502.05188830143,-9.261658262571704,[ 4449.36888815 -7502.0518883     -9.26165826],829,PAYLOAD,ELEKTRON 3,TTMTR,0,0,0,0.0,0.0,0.0,0.0,0.0,0.0,0.0
1 00829U 64038A   21351.85612490  .00000407  00000-0  12103-3 0  9998,2 00829  60.8257 301.8510 2978071 271.7397  54.9652  9.14376257864718,U,64,038,A,21,351.8561249,4.07e-06,0.0,0.0,0,999,829,60.8257,301.851,0.2978071,271.7397,54.9652,9.14376257,86471,2021-12-17 20:32:49.191360,4570.476247759047,-7438.057757907005,-9.51495470701259,[ 4570.47624776 -7438.05775791    -9.51495471],829,PAYLOAD,ELEKTRON 3,TTMTR,0,0,0,0.0,0.0,0.0,0.0,0.0,0.0,0.0
1   829U 64038A   21351.30934090  .00000400  00000-0  11919-3 0  9998,2   829  60.8257 302.5991 2978113 271.5947  55.0889  9.14375769864648,U,64,038,A,21,351.3093409,4e-06,0.0,0.0,0,999,829,60.8257,302.5991,0.2978113,271.5947,55.0889,9.14375769,86464,2021-12-17 07:25:27.053760,4670.685298945724,-7383.24135708759,-9.714794491641792,[ 4670.68529895 -7383.24135709    -9.71479449],829,PAYLOAD,ELEKTRON 3,TTMTR,0,0,0,0.0,0.0,0.0,0.0,0.0,0.0,0.0
1 00829U 64038A   21350.87191380  .00000374  00000-0  11241-3 0  9994,2 00829  60.8257 303.1976 2978153 271.4781  55.1883  9.14375248864622,U,64,038,A,21,350.8719138,3.74e-06,0.0,0.0,0,999,829,60.8257,303.1976,0.2978153,271.4781,55.1883,9.14375248,86462,2021-12-16 20:55:33.352320,4750.389130495823,-7338.441357223162,-9.894966944528008,[ 4750.3891305  -7338.44135722    -9.89496694],829,PAYLOAD,ELEKTRON 3,TTMTR,0,0,0,0.0,0.0,0.0,0.0,0.0,0.0,0.0
1 00829U 64038A   21350.32512932  .00000361  00000-0  10903-3 0  9994,2 00829  60.8256 303.9457 2978194 271.3331  55.3123  9.14374763864572,U,64,038,A,21,350.32512932,3.61e-06,0.0,0.0,0,999,829,60.8256,303.9457,0.2978194,271.3331,55.3123,9.14374763,86457,2021-12-16 07:48:11.173248,4849.416513473146,-7281.217201731582,-10.099109426159108,[ 4849.41651347 -7281.21720173   -10.09910943],829,PAYLOAD,ELEKTRON 3,TTMTR,0,0,0,0.0,0.0,0.0,0.0,0.0,0.0,0.0
1 00829U 64038A   21349.88770172  .00000366  00000-0  11033-3 0  9995,2 00829  60.8256 304.5443 2978237 271.2166  55.4120  9.14374467864532,U,64,038,A,21,349.88770172,3.66e-06,0.0,0.0,0,999,829,60.8256,304.5443,0.2978237,271.2166,55.412,9.14374467,86453,2021-12-15 21:18:17.428608,4928.179234018749,-7234.484518591948,-10.254095054051987,[ 4928.17923402 -7234.48451859   -10.25409505],829,PAYLOAD,ELEKTRON 3,TTMTR,0,0,0,0.0,0.0,0.0,0.0,0.0,0.0,0.0
1 00829U 64038A   21349.34091714  .00000326  00000-0  99834-4 0  9996,2 00829  60.8258 305.2924 2978283 271.0714  55.5363  9.14373814864483,U,64,038,A,21,349.34091714,3.26e-06,0.0,0.0,0,999,829,60.8258,305.2924,0.2978283,271.0714,55.5363,9.14373814,86448,2021-12-15 08:10:55.240896,5025.959899837634,-7174.883544229993,-10.4795880431789,[ 5025.95989984 -7174.88354423   -10.47958804],829,PAYLOAD,ELEKTRON 3,TTMTR,0,0,0,0.0,0.0,0.0,0.0,0.0,0.0,0.0
1 00829U 64038A   21348.90348918  .00000293  00000-0  91284-4 0  9992,2 00829  60.8257 305.8910 2978329 270.9549  55.6362  9.14373355864444,U,64,038,A,21,348.90348918,2.93e-06,0.0,0.0,0,999,829,60.8257,305.891,0.2978329,270.9549,55.6362,9.14373355,86444,2021-12-14 21:41:01.465152,5103.7076181372495,-7126.253381543586,-10.638237420803064,[ 5103.70761814 -7126.25338154   -10.63823742],829,PAYLOAD,ELEKTRON 3,TTMTR,0,0,0,0.0,0.0,0.0,0.0,0.0,0.0,0.0
1 00829U 64038A   21348.24734694  .00000308  00000-0  95162-4 0  9995,2 00829  60.8258 306.7888 2978381 270.7807  55.7860  9.14373002864388,U,64,038,A,21,348.24734694,3.08e-06,0.0,0.0,0,999,829,60.8258,306.7888,0.2978381,270.7807,55.786,9.14373002,86438,2021-12-14 05:56:10.775616,5219.435368460191,-7051.736279572733,-10.872479158699141,[ 5219.43536846 -7051.73627957   -10.87247916],829,PAYLOAD,ELEKTRON 3,TTMTR,0,0,0,0.0,0.0,0.0,0.0,0.0,0.0,0.0
1 00829U 64038A   21347.91927572  .00000276  00000-0  86704-4 0  9993,2 00829  60.8258 307.2377 2978414 270.6933  55.8612  9.14372645864358,U,64,038,A,21,347.91927572,2.76e-06,0.0,0.0,0,999,829,60.8258,307.2377,0.2978414,270.6933,55.8612,9.14372645,86435,2021-12-13 22:03:45.422208,5276.9063760271665,-7013.785143833727,-10.986341684148595,[ 5276.90637603 -7013.78514383   -10.98634168],829,PAYLOAD,ELEKTRON 3,TTMTR,0,0,0,0.0,0.0,0.0,0.0,0.0,0.0,0.0
